{
  "links" : {
    "next" : "https://api.nasa.gov/neo/rest/v1/feed?start_date=1998-05-09&end_date=1998-05-09&detailed=true&api_key=t0TVs3DtDT2H8Oy2Zy8m2eVrNsAVKAexjcZXUckd",
    "prev" : "https://api.nasa.gov/neo/rest/v1/feed?start_date=1998-05-07&end_date=1998-05-07&detailed=true&api_key=t0TVs3DtDT2H8Oy2Zy8m2eVrNsAVKAexjcZXUckd",
    "self" : "https://api.nasa.gov/neo/rest/v1/feed?start_date=1998-05-08&end_date=1998-05-08&detailed=true&api_key=t0TVs3DtDT2H8Oy2Zy8m2eVrNsAVKAexjcZXUckd"
  },
  "element_count" : 5,
  "near_earth_objects" : {
    "1998-05-08" : [ {
      "links" : {
        "self" : "https://api.nasa.gov/neo/rest/v1/neo/3560817?api_key=t0TVs3DtDT2H8Oy2Zy8m2eVrNsAVKAexjcZXUckd"
      },
      "neo_reference_id" : "3560817",
      "name" : "(2011 FS29)",
      "nasa_jpl_url" : "http://ssd.jpl.nasa.gov/sbdb.cgi?sstr=3560817",
      "absolute_magnitude_h" : 22.6,
      "estimated_diameter" : {
        "kilometers" : {
          "estimated_diameter_min" : 0.0802703167,
          "estimated_diameter_max" : 0.1794898848
        },
        "meters" : {
          "estimated_diameter_min" : 80.2703167283,
          "estimated_diameter_max" : 179.4898847799
        },
        "miles" : {
          "estimated_diameter_min" : 0.049877647,
          "estimated_diameter_max" : 0.1115298092
        },
        "feet" : {
          "estimated_diameter_min" : 263.3540659348,
          "estimated_diameter_max" : 588.8775935812
        }
      },
      "is_potentially_hazardous_asteroid" : false,
      "close_approach_data" : [ {
        "close_approach_date" : "1998-05-08",
        "epoch_date_close_approach" : 894610800000,
        "relative_velocity" : {
          "kilometers_per_second" : "8.5901263264",
          "kilometers_per_hour" : "30924.4547749717",
          "miles_per_hour" : "19215.2535794817"
        },
        "miss_distance" : {
          "astronomical" : "0.1393555719",
          "lunar" : "54.2093162537",
          "kilometers" : "20847296",
          "miles" : "12953910"
        },
        "orbiting_body" : "Earth"
      } ],
      "orbital_data" : {
        "orbit_id" : "23",
        "orbit_determination_date" : "2017-04-06 08:53:57",
        "orbit_uncertainty" : "4",
        "minimum_orbit_intersection" : ".0268535",
        "jupiter_tisserand_invariant" : "4.425",
        "epoch_osculation" : "2458000.5",
        "eccentricity" : ".379930048572159",
        "semi_major_axis" : "1.507087315662832",
        "inclination" : "12.49489297082722",
        "ascending_node_longitude" : "22.14668240464911",
        "orbital_period" : "675.7811115132225",
        "perihelion_distance" : ".9344995586205679",
        "perihelion_argument" : "231.3226657580131",
        "aphelion_distance" : "2.079675072705097",
        "perihelion_time" : "2457733.623625202367",
        "mean_anomaly" : "142.1695476394921",
        "mean_motion" : ".5327168721746023",
        "equinox" : "J2000"
      }
    }, {
      "links" : {
        "self" : "https://api.nasa.gov/neo/rest/v1/neo/3472549?api_key=t0TVs3DtDT2H8Oy2Zy8m2eVrNsAVKAexjcZXUckd"
      },
      "neo_reference_id" : "3472549",
      "name" : "(2009 UK20)",
      "nasa_jpl_url" : "http://ssd.jpl.nasa.gov/sbdb.cgi?sstr=3472549",
      "absolute_magnitude_h" : 26.3,
      "estimated_diameter" : {
        "kilometers" : {
          "estimated_diameter_min" : 0.0146067964,
          "estimated_diameter_max" : 0.0326617897
        },
        "meters" : {
          "estimated_diameter_min" : 14.6067964271,
          "estimated_diameter_max" : 32.6617897446
        },
        "miles" : {
          "estimated_diameter_min" : 0.0090762397,
          "estimated_diameter_max" : 0.020295089
        },
        "feet" : {
          "estimated_diameter_min" : 47.92256199,
          "estimated_diameter_max" : 107.1581062656
        }
      },
      "is_potentially_hazardous_asteroid" : false,
      "close_approach_data" : [ {
        "close_approach_date" : "1998-05-08",
        "epoch_date_close_approach" : 894610800000,
        "relative_velocity" : {
          "kilometers_per_second" : "7.7832755569",
          "kilometers_per_hour" : "28019.7920048371",
          "miles_per_hour" : "17410.4090932278"
        },
        "miss_distance" : {
          "astronomical" : "0.0654160031",
          "lunar" : "25.4468250275",
          "kilometers" : "9786095",
          "miles" : "6080797"
        },
        "orbiting_body" : "Earth"
      } ],
      "orbital_data" : {
        "orbit_id" : "12",
        "orbit_determination_date" : "2017-04-06 08:59:24",
        "orbit_uncertainty" : "6",
        "minimum_orbit_intersection" : ".00597035",
        "jupiter_tisserand_invariant" : "5.818",
        "epoch_osculation" : "2458000.5",
        "eccentricity" : ".2071134032950719",
        "semi_major_axis" : "1.053656441608185",
        "inclination" : "2.844057772193474",
        "ascending_node_longitude" : "215.9798594717084",
        "orbital_period" : "395.0453614507765",
        "perihelion_distance" : ".8354300700829389",
        "perihelion_argument" : "277.4530876384516",
        "aphelion_distance" : "1.271882813133432",
        "perihelion_time" : "2457981.813600043870",
        "mean_anomaly" : "17.02868743858137",
        "mean_motion" : ".9112877535833485",
        "equinox" : "J2000"
      }
    } ]
  }
}